ONEWEB-0056             
1 45159U 20008AE  25351.79091512 -.00000601  00000+0 -17588-2 0  9993
2 45159  87.8809  72.4231 0001596 110.6195 249.5103 13.10370424284428
ONEWEB-0057             
1 45160U 20008AF  25351.72216327 -.00000656  00000+0 -19143-2 0  9990
2 45160  87.8807  72.4497 0001866 110.4474 249.6854 13.10372713284584
ONEWEB-0058             
1 45161U 20008AG  25351.70889082 -.00000373  00000+0 -11042-2 0  9999
2 45161  87.8802  72.4629 0001672  95.9966 264.1352 13.10368688284654
ONEWEB-0059             
1 45162U 20008AH  25351.70544116 -.00000262  00000+0 -78695-3 0  9991
2 45162  87.8804  72.4638 0001765 101.8249 258.3077 13.10370600284556
ONEWEB-0062             
1 45163U 20008AJ  25351.73115249 -.00000534  00000+0 -15660-2 0  9990
2 45163  87.8814  72.4351 0001563  88.8592 271.2715 13.10374361284428
ONEWEB-0065             
1 45164U 20008AK  25351.76176962  .00000612  00000+0  17165-2 0  9990
2 45164  87.8804  72.4439 0001779 116.8477 243.2832 13.10372476284129
ONEWEB-0066             
1 45424U 20020A   25351.71298902  .00000494  00000+0  13587-2 0  9999
2 45424  87.8860  57.2002 0002008 102.2335 257.9018 13.11415632278893
ONEWEB-0067             
1 45425U 20020B   25351.75040569 -.00000534  00000+0 -15421-2 0  9994
2 45425  87.8865  57.0970 0001865 105.9389 254.1944 13.11416581278958
